NORAD_CAT_ID,OBJECT_NAME,OBJECT_TYPE,EPOCH,MEAN_MOTION,ECCENTRICITY,INCLINATION,RA_OF_ASC_NODE,ARG_OF_PERICENTER,MEAN_ANOMALY,BSTAR,MEAN_MOTION_DOT,MEAN_MOTION_DDOT,TLE_LINE0,TLE_LINE1,TLE_LINE2,SEMIMAJOR_AXIS,PERIOD,APOGEE,PERIGEE,DECAYED
53918.0,STARLINK-5012,PAYLOAD,2022-12-20 22:00:01,15.1597546,0.0001106,53.2087,187.8568,71.1503,313.6899,-0.060033,-0.01079757,0.0,0 STARLINK-5012,1 53918U 22119AJ  22354.91668981 -.01079757  00000-0 -60033-1 0  9996,2 53918  53.2087 187.8568 0001106  71.1503 313.6899 15.15975460 14053,6896.156,94.988,518.783,517.258,0.0
53918.0,STARLINK-5012,PAYLOAD,2022-12-21 06:00:00,15.15209285,0.0001189,53.2175,186.342,81.3732,323.0788,-0.065638,-0.01149203,0.0,0 STARLINK-5012,1 53918U 22119AJ  22355.25001157 -.01149203  00000-0 -65638-1 0  9990,2 53918  53.2175 186.3420 0001189  81.3732 323.0788 15.15209285 14103,6898.48,95.036,521.165,519.525,0.0
53918.0,STARLINK-5012,PAYLOAD,2022-12-21 14:00:01,15.14394069,0.0001245,53.2177,184.8316,83.0551,340.1484,-0.06697,-0.01145925,0.0,0 STARLINK-5012,1 53918U 22119AJ  22355.58334491 -.01145925  00000-0 -66970-1 0  9993,2 53918  53.2177 184.8316 0001245  83.0551 340.1484 15.14394069  1308,6900.956,95.088,523.68,521.962,0.0
53918.0,STARLINK-5012,PAYLOAD,2022-12-22 06:00:00,15.12761736,0.0001307,53.2077,181.8174,73.9126,23.8982,-0.070157,-0.01146323,0.0,0 STARLINK-5012,1 53918U 22119AJ  22356.25001157 -.01146323  00000-0 -70157-1 0  9993,2 53918  53.2077 181.8174 0001307  73.9126  23.8982 15.12761736 14254,6905.919,95.19,528.687,526.882,0.0
53918.0,STARLINK-5012,PAYLOAD,2022-12-22 14:00:01,15.11978346,0.0001384,53.2108,180.3121,82.2186,31.3986,-0.074414,-0.01185986,0.0,0 STARLINK-5012,1 53918U 22119AJ  22356.58334491 -.01185986  00000-0 -74414-1 0  9997,2 53918  53.2108 180.3121 0001384  82.2186  31.3986 15.11978346  1305,6908.304,95.239,531.125,529.2130000000002,0.0
53918.0,STARLINK-5012,PAYLOAD,2022-12-22 22:00:00,15.11077092,0.0001382,53.2141,178.8115,78.064,50.4166,-0.069765,-0.01091755,0.0,0 STARLINK-5012,1 53918U 22119AJ  22356.91667824 -.01091755  00000-0 -69765-1 0  9996,2 53918  53.2141 178.8115 0001382  78.0640  50.4166 15.11077092 14352,6911.051,95.296,533.871,531.961,0.0
53918.0,STARLINK-5012,PAYLOAD,2022-12-23 00:00:00,15.10857562,0.0001402,53.2147,178.4359,84.3775,137.6533,-0.0671409999999999,-0.01047667,0.0,0 STARLINK-5012,1 53918U 22119AJ  22357.00001157 -.01047667  00000-0 -67141-1 0  9997,2 53918  53.2147 178.4359 0001402  84.3775 137.6533 15.10857562  1300,6911.72,95.31,534.554,532.616,0.0
53918.0,STARLINK-5012,PAYLOAD,2022-12-23 14:00:01,15.09380317,0.0001284999999999,53.2163,175.81,78.9743,76.2177,-0.041827,-0.0063431,0.0,0 STARLINK-5012,1 53918U 22119AJ  22357.58334491 -.00634310  00000-0 -41827-1 0  9999,2 53918  53.2163 175.8100 0001285  78.9743  76.2177 15.09380317  1305,6916.229,95.403,538.9830000000002,537.206,0.0
53918.0,STARLINK-5012,PAYLOAD,2022-12-23 22:00:01,15.08883328,0.0001278,53.2112,174.3147,70.8634,96.3019,-0.0020891,-0.00033421,0.0,0 STARLINK-5012,1 53918U 22119AJ  22357.91668981 -.00033421  00000-0 -20891-2 0  9995,2 53918  53.2112 174.3147 0001278  70.8634  96.3019 15.08883328 14509,6917.748000000001,95.435,540.497,538.729,0.0
53918.0,STARLINK-5012,PAYLOAD,2022-12-24 14:00:01,15.08888536,0.0001254,53.2128,171.3188,79.0729,111.2828,-0.0026909,-0.00042915,0.0,0 STARLINK-5012,1 53918U 22119AJ  22358.58334491 -.00042915  00000-0 -26909-2 0  9999,2 53918  53.2128 171.3188 0001254  79.0729 111.2828 15.08888536 14600,6917.732,95.434,540.465,538.73,0.0
53918.0,STARLINK-5012,PAYLOAD,2022-12-24 22:00:00,15.08850206,0.0001434,53.2133,169.8236,69.7804,132.2209,-0.004035,-0.00063953,0.0,0 STARLINK-5012,1 53918U 22119AJ  22358.91667824 -.00063953  00000-0 -40350-2 0  9996,2 53918  53.2133 169.8236 0001434  69.7804 132.2209 15.08850206  1304,6917.849,95.437,540.706,538.722,0.0
53918.0,STARLINK-5012,PAYLOAD,2022-12-25 06:00:00,15.08747106,0.0001433,53.2136,168.3254,77.2654,136.3272,0.0022257,0.00035221,0.0,0 STARLINK-5012,1 53918U 22119AJ  22359.25001157  .00035221  00000-0  22257-2 0  9996,2 53918  53.2136 168.3254 0001433  77.2654 136.3272 15.08747106 14704,6918.1640000000025,95.443,541.021,539.038,0.0
53918.0,STARLINK-5012,PAYLOAD,2022-12-25 14:00:01,15.08803988,0.0001537,53.2139,166.8296,79.678,145.4029,0.0031505,0.0005016,0.0,0 STARLINK-5012,1 53918U 22119AJ  22359.58334491  .00050160  00000-0  31505-2 0  9997,2 53918  53.2139 166.8296 0001537  79.6780 145.4029 15.08803988  1301,6917.99,95.44,540.919,538.7919999999998,0.0
53918.0,STARLINK-5012,PAYLOAD,2022-12-25 22:00:00,15.08833022,0.0001508,53.2141,165.3346,69.3015,167.3566,0.00085274,0.00013307,0.0,0 STARLINK-5012,1 53918U 22119AJ  22359.91667824  .00013307  00000-0  85274-3 0  9998,2 53918  53.2141 165.3346 0001508  69.3015 167.3566 15.08833022 14809,6917.901999999999,95.438,540.81,538.7230000000002,0.0
53918.0,STARLINK-5012,PAYLOAD,2022-12-26 00:00:00,15.08855667,0.0001450999999999,53.2139,164.9601,68.6877,260.8627,-0.0023878,-0.00038105,0.0,0 STARLINK-5012,1 53918U 22119AJ  22360.00001157 -.00038105  00000-0 -23878-2 0  9997,2 53918  53.2139 164.9601 0001451  68.6877 260.8627 15.08855667  1307,6917.833000000001,95.437,540.701,538.694,0.0
53918.0,STARLINK-5012,PAYLOAD,2022-12-26 14:00:01,15.08843299,0.0001408,53.2148,162.3405,76.223,183.6067,-0.0012981,-0.0002089,0.0,0 STARLINK-5012,1 53918U 22119AJ  22360.58334491 -.00020890  00000-0 -12981-2 0  9995,2 53918  53.2148 162.3405 0001408  76.2230 183.6067 15.08843299 14909,6917.87,95.437,540.7090000000002,538.761,0.0
53918.0,STARLINK-5012,PAYLOAD,2022-12-27 00:00:00,15.08842643,0.0001422,53.2146,160.4708,66.6396,297.6774,0.00028387,4.233e-05,0.0,0 STARLINK-5012,1 53918U 22119AJ  22361.00001157  .00004233  00000-0  28387-3 0  9992,2 53918  53.2146 160.4708 0001422  66.6396 297.6774 15.08842643  1307,6917.871999999999,95.437,540.721,538.754,0.0
53918.0,STARLINK-5012,PAYLOAD,2022-12-28 10:57:21,15.08844568,0.0001361999999999,53.2157,153.9311,74.0261,286.0881,9.7789e-05,1.269e-05,0.0,0 STARLINK-5012,1 53918U 22119AJ  22362.45650346  .00001269  00000-0  97789-4 0  9991,2 53918  53.2157 153.9311 0001362  74.0261 286.0881 15.08844568 15194,6917.866,95.437,540.674,538.789,0.0
53918.0,STARLINK-5012,PAYLOAD,2022-12-28 12:32:45,15.08842852,0.0001328,53.2155,153.6338,72.8464,287.2674,8.465e-05,1.06e-05,0.0,0 STARLINK-5012,1 53918U 22119AJ  22362.52274463  .00001060  00000-0  84650-4 0  9993,2 53918  53.2155 153.6338 0001328  72.8464 287.2674 15.08842852 15626,6917.871999999999,95.437,540.655,538.818,0.0
53918.0,STARLINK-5012,PAYLOAD,2022-12-29 02:51:13,15.0883891,0.0001359,53.2156,150.9573,73.9464,286.1678,2.2733e-05,7.4e-07,0.0,0 STARLINK-5012,1 53918U 22119AJ  22363.11890811  .00000074  00000-0  22733-4 0  9998,2 53918  53.2156 150.9573 0001359  73.9464 286.1678 15.08838910 15299,6917.884,95.438,540.689,538.809,0.0
53918.0,STARLINK-5012,PAYLOAD,2022-12-29 20:20:28,15.08843751,0.0001385,53.2156,147.6869,75.1136,285.001,-5.4877e-05,-1.161e-05,0.0,0 STARLINK-5012,1 53918U 22119AJ  22363.84754740 -.00001161  00000-0 -54877-4 0  9992,2 53918  53.2156 147.6869 0001385  75.1136 285.0010 15.08843751 15825,6917.869000000002,95.437,540.692,538.776,0.0
53918.0,STARLINK-5012,PAYLOAD,2022-12-30 17:00:28,15.08842676,0.000144,53.2158,143.8212,75.1282,284.9869,2.2528e-06,-2.52e-06,0.0,0 STARLINK-5012,1 53918U 22119AJ  22364.70866337 -.00000252  00000-0  22528-5 0  9992,2 53918  53.2158 143.8212 0001440  75.1282 284.9869 15.08842676 15534,6917.871999999999,95.437,540.7330000000002,538.741,0.0
53918.0,STARLINK-5012,PAYLOAD,2022-12-31 02:32:46,15.08850809,0.0001448,53.2162,142.0371,75.8863,284.2290000000001,7.0229e-05,8.3e-06,0.0,0 STARLINK-5012,1 53918U 22119AJ  22365.10609428  .00000830  00000-0  70229-4 0  9994,2 53918  53.2162 142.0371 0001448  75.8863 284.2290 15.08850809 15590,6917.847,95.437,540.714,538.711,0.0
53918.0,STARLINK-5012,PAYLOAD,2022-12-31 16:51:15,15.08844191,0.0001463,53.2159,139.3605,74.6146,285.5008,5.3188e-05,5.59e-06,0.0,0 STARLINK-5012,1 53918U 22119AJ  22365.70225729  .00000559  00000-0  53188-4 0  9991,2 53918  53.2159 139.3605 0001463  74.6146 285.5008 15.08844191 16109,6917.868,95.437,540.745,538.72,0.0
53918.0,STARLINK-5012,PAYLOAD,2023-01-01 15:06:39,15.088402800000004,0.0001785,53.2164,135.1966,78.5469,281.5724,-3.2389e-05,-8.04e-06,0.0,0 STARLINK-5012,1 53918U 22119AJ  23001.62961990 -.00000804  00000-0 -32389-4 0  9992,2 53918  53.2164 135.1966 0001785  78.5469 281.5724 15.08840280 16248,6917.88,95.438,540.979,538.51,0.0
53918.0,STARLINK-5012,PAYLOAD,2023-01-02 02:14:21,15.08839702,0.000158,53.2176,133.1148,79.288,280.829,-4.506600000000001e-05,-1.005e-05,0.0,0 STARLINK-5012,1 53918U 22119AJ  23002.09330061 -.00001005  00000-0 -45066-4 0  9993,2 53918  53.2176 133.1148 0001580  79.2880 280.8290 15.08839702 15896,6917.880999999999,95.438,540.839,538.653,0.0
53918.0,STARLINK-5012,PAYLOAD,2023-01-02 14:57:26,15.08836931,0.0001389,53.2181,130.7367,78.5819,281.5329,-2.6941e-05,-7.17e-06,0.0,0 STARLINK-5012,1 53918U 22119AJ  23002.62322087 -.00000717  00000-0 -26941-4 0  9991,2 53918  53.2181 130.7367 0001389  78.5819 281.5329 15.08836931 16397,6917.89,95.438,540.716,538.794,0.0
53918.0,STARLINK-5012,PAYLOAD,2023-01-03 08:26:40,15.08842051,0.0001475,53.2181,127.4664,72.2775,287.8378,-1.3366e-05,-5.01e-06,0.0,0 STARLINK-5012,1 53918U 22119AJ  23003.35185694 -.00000501  00000-0 -13366-4 0  9991,2 53918  53.2181 127.4664 0001475  72.2775 287.8378 15.08842051 16087,6917.874,95.437,540.76,538.719,0.0
53918.0,STARLINK-5012,PAYLOAD,2023-01-03 14:48:13,15.08833038,0.0001452,53.2181,126.2784,69.7678,290.3471,5.6125e-05,6.05e-06,0.0,0 STARLINK-5012,1 53918U 22119AJ  23003.61682173  .00000605  00000-0  56125-4 0  9997,2 53918  53.2181 126.2784 0001452  69.7678 290.3471 15.08833038 16128,6917.901999999999,95.438,540.771,538.762,0.0
